{"type": "FeatureCollection", "features": [ {"type": "Feature", "properties": {"norad_id": 30515, "name": "FENGYUN 1C DEB", "group": "fengyun-1c-debris", "lat": -48.16338972822983, "lon": -130.22186452947497, "alt_km": 1262.8840578951695, "timestamp": "2025-12-09T14:52:26.438733+00:00", "meta": {"OBJECT_NAME": "FENGYUN 1C DEB", "OBJECT_ID": "1999-025AJD", "EPOCH": "2025-12-09T05:08:35.704032", "MEAN_MOTION": 13.63772975, "ECCENTRICITY": 0.04968689, "INCLINATION": 98.5089, "RA_OF_ASC_NODE": 219.7956, "ARG_OF_PERICENTER": 83.9695, "MEAN_ANOMALY": 42.0779, "EPHEMERIS_TYPE": 0, "CLASSIFICATION_TYPE": "U", "NORAD_CAT_ID": 30515, "ELEMENT_SET_NO": 999, "REV_AT_EPOCH": 93282, "BSTAR": 0.0013932198, "MEAN_MOTION_DOT": 2.532e-05, "MEAN_MOTION_DDOT": 0}, "tle": {"line1": "1 30515U 99025AJD 25343.21430213  .00002532  00000+0  13932-2 0  9993", "line2": "2 30515  98.5089 219.7956 0496868  83.9695  42.0779 13.63772975932828"}}, "geometry": {"type": "Point", "coordinates": [-130.22186452947497, -48.16338972822983]}}, {"type": "Feature", "properties": {"norad_id": 30516, "name": "FENGYUN 1C DEB", "group": "fengyun-1c-debris", "lat": -49.83503546003823, "lon": 98.1667134792745, "alt_km": 754.929767746683, "timestamp": "2025-12-09T14:52:26.438744+00:00", "meta": {"OBJECT_NAME": "FENGYUN 1C DEB", "OBJECT_ID": "1999-025AJE", "EPOCH": "2025-12-09T07:04:17.366016", "MEAN_MOTION": 14.41262887, "ECCENTRICITY": 0.00088381, "INCLINATION": 98.8573, "RA_OF_ASC_NODE": 87.1833, "ARG_OF_PERICENTER": 301.8507, "MEAN_ANOMALY": 121.6922, "EPHEMERIS_TYPE": 0, "CLASSIFICATION_TYPE": "U", "NORAD_CAT_ID": 30516, "ELEMENT_SET_NO": 999, "REV_AT_EPOCH": 97665, "BSTAR": 0.0030395659, "MEAN_MOTION_DOT": 9.793e-05, "MEAN_MOTION_DDOT": 0}, "tle": {"line1": "1 30516U 99025AJE 25343.29464544  .00009793  00000+0  30396-2 0  9995", "line2": "2 30516  98.8573  87.1833 0008838 301.8507 121.6922 14.41262887976657"}}, "geometry": {"type": "Point", "coordinates": [98.1667134792745, -49.83503546003823]}}, {"type": "Feature", "properties": {"norad_id": 30520, "name": "FENGYUN 1C DEB", "group": "fengyun-1c-debris", "lat": -22.48393391976765, "lon": 159.61616522981154, "alt_km": 562.9647011334182, "timestamp": "2025-12-09T14:52:26.438754+00:00", "meta": {"OBJECT_NAME": "FENGYUN 1C DEB", "OBJECT_ID": "1999-025AJJ", "EPOCH": "2025-12-09T05:27:25.258752", "MEAN_MOTION": 15.13836326, "ECCENTRICITY": 0.00705762, "INCLINATION": 98.7187, "RA_OF_ASC_NODE": 155.5258, "ARG_OF_PERICENTER": 111.7403, "MEAN_ANOMALY": 249.1356, "EPHEMERIS_TYPE": 0, "CLASSIFICATION_TYPE": "U", "NORAD_CAT_ID": 30520, "ELEMENT_SET_NO": 999, "REV_AT_EPOCH": 988, "BSTAR": 0.0015331387, "MEAN_MOTION_DOT": 0.00029484, "MEAN_MOTION_DDOT": 0}, "tle": {"line1": "1 30520U 99025AJJ 25343.22737568  .00029484  00000+0  15331-2 0  9993", "line2": "2 30520  98.7187 155.5258 0070576 111.7403 249.1356 15.13836326  9888"}}, "geometry": {"type": "Point", "coordinates": [159.61616522981154, -22.48393391976765]}}, {"type": "Feature", "properties": {"norad_id": 30521, "name": "FENGYUN 1C DEB", "group": "fengyun-1c-debris", "lat": 47.688058276910596, "lon": 108.58826333273578, "alt_km": 781.6762447151241, "timestamp": "2025-12-09T14:52:26.438764+00:00", "meta": {"OBJECT_NAME": "FENGYUN 1C DEB", "OBJECT_ID": "1999-025AJK", "EPOCH": "2025-12-08T22:10:49.545120", "MEAN_MOTION": 14.5820038, "ECCENTRICITY": 0.013558, "INCLINATION": 98.9889, "RA_OF_ASC_NODE": 117.8505, "ARG_OF_PERICENTER": 255.3229, "MEAN_ANOMALY": 103.2906, "EPHEMERIS_TYPE": 0, "CLASSIFICATION_TYPE": "U", "NORAD_CAT_ID": 30521, "ELEMENT_SET_NO": 999, "REV_AT_EPOCH": 99526, "BSTAR": 0.0010054, "MEAN_MOTION_DOT": 5.208e-05, "MEAN_MOTION_DDOT": 0}, "tle": {"line1": "1 30521U 99025AJK 25342.92418455  .00005208  00000+0  10054-2 0  9996", "line2": "2 30521  98.9889 117.8505 0135580 255.3229 103.2906 14.58200380995264"}}, "geometry": {"type": "Point", "coordinates": [108.58826333273578, 47.688058276910596]}}, {"type": "Feature", "properties": {"norad_id": 30523, "name": "FENGYUN 1C DEB", "group": "fengyun-1c-debris", "lat": -61.34725013630049, "lon": -22.133632555621247, "alt_km": 981.0033203927287, "timestamp": "2025-12-09T14:52:26.438775+00:00", "meta": {"OBJECT_NAME": "FENGYUN 1C DEB", "OBJECT_ID": "1999-025AJM", "EPOCH": "2025-12-08T09:38:40.443072", "MEAN_MOTION": 14.27922624, "ECCENTRICITY": 0.02440508, "INCLINATION": 98.4656, "RA_OF_ASC_NODE": 320.8677, "ARG_OF_PERICENTER": 121.245, "MEAN_ANOMALY": 39.2518, "EPHEMERIS_TYPE": 0, "CLASSIFICATION_TYPE": "U", "NORAD_CAT_ID": 30523, "ELEMENT_SET_NO": 999, "REV_AT_EPOCH": 98038, "BSTAR": 0.00028509033, "MEAN_MOTION_DOT": 9.24e-06, "MEAN_MOTION_DDOT": 0}, "tle": {"line1": "1 30523U 99025AJM 25342.40185698  .00000924  00000+0  28509-3 0  9996", "line2": "2 30523  98.4656 320.8677 0244050 121.2450  39.2518 14.27922624980381"}}, "geometry": {"type": "Point", "coordinates": [-22.133632555621247, -61.34725013630049]}}, {"type": "Feature", "properties": {"norad_id": 30524, "name": "FENGYUN 1C DEB", "group": "fengyun-1c-debris", "lat": -58.113458875040116, "lon": 170.99598972382933, "alt_km": 814.2209399019921, "timestamp": "2025-12-09T14:52:26.438785+00:00", "meta": {"OBJECT_NAME": "FENGYUN 1C DEB", "OBJECT_ID": "1999-025AJN", "EPOCH": "2025-12-08T23:37:50.152800", "MEAN_MOTION": 13.921025, "ECCENTRICITY": 0.02079816, "INCLINATION": 99.3079, "RA_OF_ASC_NODE": 155.0734, "ARG_OF_PERICENTER": 260.3123, "MEAN_ANOMALY": 97.4489, "EPHEMERIS_TYPE": 0, "CLASSIFICATION_TYPE": "U", "NORAD_CAT_ID": 30524, "ELEMENT_SET_NO": 999, "REV_AT_EPOCH": 93833, "BSTAR": 0.007094335, "MEAN_MOTION_DOT": 0.00010796, "MEAN_MOTION_DDOT": 0}, "tle": {"line1": "1 30524U 99025AJN 25342.98460825  .00010796  00000+0  70943-2 0  9994", "line2": "2 30524  99.3079 155.0734 0207981 260.3123  97.4489 13.92102500938332"}}, "geometry": {"type": "Point", "coordinates": [170.99598972382933, -58.113458875040116]}}, {"type": "Feature", "properties": {"norad_id": 30525, "name": "FENGYUN 1C DEB", "group": "fengyun-1c-debris", "lat": -11.948312997310046, "lon": 47.25871604212764, "alt_km": 1167.8346456376375, "timestamp": "2025-12-09T14:52:26.438795+00:00", "meta": {"OBJECT_NAME": "FENGYUN 1C DEB", "OBJECT_ID": "1999-025AJP", "EPOCH": "2025-12-07T15:57:14.658336", "MEAN_MOTION": 13.58585376, "ECCENTRICITY": 0.02940097, "INCLINATION": 98.6021, "RA_OF_ASC_NODE": 227.3772, "ARG_OF_PERICENTER": 322.7066, "MEAN_ANOMALY": 35.398, "EPHEMERIS_TYPE": 0, "CLASSIFICATION_TYPE": "U", "NORAD_CAT_ID": 30525, "ELEMENT_SET_NO": 999, "REV_AT_EPOCH": 93048, "BSTAR": 0.0026285251, "MEAN_MOTION_DOT": 2.505e-05, "MEAN_MOTION_DDOT": 0}, "tle": {"line1": "1 30525U 99025AJP 25341.66475299  .00002505  00000+0  26285-2 0  9999", "line2": "2 30525  98.6021 227.3772 0294009 322.7066  35.3980 13.58585376930486"}}, "geometry": {"type": "Point", "coordinates": [47.25871604212764, -11.948312997310046]}}, {"type": "Feature", "properties": {"norad_id": 30526, "name": "FENGYUN 1C DEB", "group": "fengyun-1c-debris", "lat": -75.82415662461686, "lon": 107.78941130560433, "alt_km": 854.0224171835007, "timestamp": "2025-12-09T14:52:26.438806+00:00", "meta": {"OBJECT_NAME": "FENGYUN 1C DEB", "OBJECT_ID": "1999-025AJQ", "EPOCH": "2025-12-09T04:34:45.464736", "MEAN_MOTION": 13.49895325, "ECCENTRICITY": 0.0305945, "INCLINATION": 99.5476, "RA_OF_ASC_NODE": 65.5968, "ARG_OF_PERICENTER": 273.6009, "MEAN_ANOMALY": 83.019, "EPHEMERIS_TYPE": 0, "CLASSIFICATION_TYPE": "U", "NORAD_CAT_ID": 30526, "ELEMENT_SET_NO": 999, "REV_AT_EPOCH": 92610, "BSTAR": 0.0018995751, "MEAN_MOTION_DOT": 1.568e-05, "MEAN_MOTION_DDOT": 0}, "tle": {"line1": "1 30526U 99025AJQ 25343.19080399  .00001568  00000+0  18996-2 0  9991", "line2": "2 30526  99.5476  65.5968 0305945 273.6009  83.0190 13.49895325926108"}}, "geometry": {"type": "Point", "coordinates": [107.78941130560433, -75.82415662461686]}}, {"type": "Feature", "properties": {"norad_id": 30527, "name": "FENGYUN 1C DEB", "group": "fengyun-1c-debris", "lat": 41.235376926404214, "lon": 18.100159822247416, "alt_km": 1443.0430947672894, "timestamp": "2025-12-09T14:52:26.438816+00:00", "meta": {"OBJECT_NAME": "FENGYUN 1C DEB", "OBJECT_ID": "1999-025AJR", "EPOCH": "2025-12-08T14:12:40.305024", "MEAN_MOTION": 13.31018668, "ECCENTRICITY": 0.0413021, "INCLINATION": 100.0641, "RA_OF_ASC_NODE": 26.0481, "ARG_OF_PERICENTER": 236.3127, "MEAN_ANOMALY": 283.2307, "EPHEMERIS_TYPE": 0, "CLASSIFICATION_TYPE": "U", "NORAD_CAT_ID": 30527, "ELEMENT_SET_NO": 999, "REV_AT_EPOCH": 91301, "BSTAR": 0.0027092, "MEAN_MOTION_DOT": 2.018e-05, "MEAN_MOTION_DDOT": 0}, "tle": {"line1": "1 30527U 99025AJR 25342.59213316  .00002018  00000+0  27092-2 0  9990", "line2": "2 30527 100.0641  26.0481 0413021 236.3127 283.2307 13.31018668913013"}}, "geometry": {"type": "Point", "coordinates": [18.100159822247416, 41.235376926404214]}}, {"type": "Feature", "properties": {"norad_id": 30528, "name": "FENGYUN 1C DEB", "group": "fengyun-1c-debris", "lat": -9.61985747061158, "lon": 32.054129821608484, "alt_km": 778.139765259104, "timestamp": "2025-12-09T14:52:26.438827+00:00", "meta": {"OBJECT_NAME": "FENGYUN 1C DEB", "OBJECT_ID": "1999-025AJS", "EPOCH": "2025-12-08T14:26:57.623712", "MEAN_MOTION": 14.13485717, "ECCENTRICITY": 0.0143279, "INCLINATION": 98.2382, "RA_OF_ASC_NODE": 212.5233, "ARG_OF_PERICENTER": 237.9765, "MEAN_ANOMALY": 177.1341, "EPHEMERIS_TYPE": 0, "CLASSIFICATION_TYPE": "U", "NORAD_CAT_ID": 30528, "ELEMENT_SET_NO": 999, "REV_AT_EPOCH": 97079, "BSTAR": 0.00066775, "MEAN_MOTION_DOT": 1.346e-05, "MEAN_MOTION_DDOT": 0}, "tle": {"line1": "1 30528U 99025AJS 25342.60205583  .00001346  00000+0  66775-3 0  9995", "line2": "2 30528  98.2382 212.5233 0143279 237.9765 177.1341 14.13485717970792"}}, "geometry": {"type": "Point", "coordinates": [32.054129821608484, -9.61985747061158]}}]}